{
  "type": "FeatureCollection",
  "features": [
    {
      "type": "Feature",
      "properties": {
        "norad_id": 44334,
        "name": "EUTELSAT 7C",
        "group": "eutelsat",
        "lat": 0.03698608079155434,
        "lon": -119.79231058613183,
        "alt_km": 35773.75064980275,
        "timestamp": "2025-12-20T09:36:01.303406+00:00",
        "meta_object_name": "EUTELSAT 7C",
        "meta_object_id": "2019-034B",
        "meta_epoch": "2025-12-20T02:43:38.882208",
        "meta_mean_motion": 1.00270718,
        "meta_eccentricity": 0.0003051,
        "meta_inclination": 0.0731,
        "meta_ra_of_asc_node": 179.4105,
        "meta_arg_of_pericenter": 73.3864,
        "meta_mean_anomaly": 244.0536,
        "meta_ephemeris_type": 0,
        "meta_classification_type": "U",
        "meta_norad_cat_id": 44334,
        "meta_element_set_no": 999,
        "meta_rev_at_epoch": 504,
        "meta_bstar": 0,
        "meta_mean_motion_dot": 7.2e-07,
        "meta_mean_motion_ddot": 0,
        "tle_line1": "1 44334U 19034B   25354.11364447  .00000072  00000+0  00000+0 0  9991",
        "tle_line2": "2 44334   0.0731 179.4105 0003051  73.3864 244.0536  1.00270718  5047"
      },
      "geometry": {
        "type": "Point",
        "coordinates": [
          -119.79231058613183,
          0.03698608079155434
        ]
      }
    },
    {
      "type": "Feature",
      "properties": {
        "norad_id": 44624,
        "name": "EUTELSAT 5 WEST B",
        "group": "eutelsat",
        "lat": -0.08714207103190859,
        "lon": -131.7868305331094,
        "alt_km": 35776.614811172934,
        "timestamp": "2025-12-20T09:36:01.303418+00:00",
        "meta_object_name": "EUTELSAT 5 WEST B",
        "meta_object_id": "2019-067A",
        "meta_epoch": "2025-12-20T02:56:07.768896",
        "meta_mean_motion": 1.00271302,
        "meta_eccentricity": 0.0002998,
        "meta_inclination": 0.0677,
        "meta_ra_of_asc_node": 334.1279,
        "meta_arg_of_pericenter": 294.9809,
        "meta_mean_anomaly": 218.8907,
        "meta_ephemeris_type": 0,
        "meta_classification_type": "U",
        "meta_norad_cat_id": 44624,
        "meta_element_set_no": 999,
        "meta_rev_at_epoch": 2264,
        "meta_bstar": 0,
        "meta_mean_motion_dot": -1.8e-07,
        "meta_mean_motion_ddot": 0,
        "tle_line1": "1 44624U 19067A   25354.12231214 -.00000018  00000+0  00000+0 0  9996",
        "tle_line2": "2 44624   0.0677 334.1279 0002998 294.9809 218.8907  1.00271302 22645"
      },
      "geometry": {
        "type": "Point",
        "coordinates": [
          -131.7868305331094,
          -0.08714207103190859
        ]
      }
    },
    {
      "type": "Feature",
      "properties": {
        "norad_id": 45027,
        "name": "EUTELSAT KONNECT",
        "group": "eutelsat",
        "lat": 0.013008131723979742,
        "lon": -119.57887913371717,
        "alt_km": 35782.82811595664,
        "timestamp": "2025-12-20T09:36:01.303430+00:00",
        "meta_object_name": "EUTELSAT KONNECT",
        "meta_object_id": "2020-005B",
        "meta_epoch": "2025-12-20T02:59:37.434912",
        "meta_mean_motion": 1.00269788,
        "meta_eccentricity": 0.0001294,
        "meta_inclination": 0.0715,
        "meta_ra_of_asc_node": 94.8769,
        "meta_arg_of_pericenter": 191.9092,
        "meta_mean_anomaly": 214.2865,
        "meta_ephemeris_type": 0,
        "meta_classification_type": "U",
        "meta_norad_cat_id": 45027,
        "meta_element_set_no": 999,
        "meta_rev_at_epoch": 2254,
        "meta_bstar": 0,
        "meta_mean_motion_dot": 7.3e-07,
        "meta_mean_motion_ddot": 0,
        "tle_line1": "1 45027U 20005B   25354.12473883  .00000073  00000+0  00000+0 0  9998",
        "tle_line2": "2 45027   0.0715  94.8769 0001294 191.9092 214.2865  1.00269788 22545"
      },
      "geometry": {
        "type": "Point",
        "coordinates": [
          -119.57887913371717,
          0.013008131723979742
        ]
      }
    },
    {
      "type": "Feature",
      "properties": {
        "norad_id": 49056,
        "name": "EUTELSAT QUANTUM",
        "group": "eutelsat",
        "lat": -0.0410165896224044,
        "lon": -79.06358133280077,
        "alt_km": 35771.9109510777,
        "timestamp": "2025-12-20T09:36:01.303441+00:00",
        "meta_object_name": "EUTELSAT QUANTUM",
        "meta_object_id": "2021-069B",
        "meta_epoch": "2025-12-20T03:11:06.335808",
        "meta_mean_motion": 1.0027193,
        "meta_eccentricity": 0.0003331,
        "meta_inclination": 0.0185,
        "meta_ra_of_asc_node": 31.6065,
        "meta_arg_of_pericenter": 247.5721,
        "meta_mean_anomaly": 265.2736,
        "meta_ephemeris_type": 0,
        "meta_classification_type": "U",
        "meta_norad_cat_id": 49056,
        "meta_element_set_no": 999,
        "meta_rev_at_epoch": 1613,
        "meta_bstar": 0,
        "meta_mean_motion_dot": 1.5e-06,
        "meta_mean_motion_ddot": 0,
        "tle_line1": "1 49056U 21069B   25354.13271222  .00000150  00000+0  00000+0 0  9995",
        "tle_line2": "2 49056   0.0185  31.6065 0003331 247.5721 265.2736  1.00271930 16134"
      },
      "geometry": {
        "type": "Point",
        "coordinates": [
          -79.06358133280077,
          -0.0410165896224044
        ]
      }
    },
    {
      "type": "Feature",
      "properties": {
        "norad_id": 53765,
        "name": "EUTELSAT KONNECT VHTS",
        "group": "eutelsat",
        "lat": 0.0155741108418415,
        "lon": -124.00691179938751,
        "alt_km": 35774.579499251486,
        "timestamp": "2025-12-20T09:36:01.303461+00:00",
        "meta_object_name": "EUTELSAT KONNECT VHTS",
        "meta_object_id": "2022-110A",
        "meta_epoch": "2025-12-20T03:48:38.814048",
        "meta_mean_motion": 1.00276689,
        "meta_eccentricity": 0.0002393,
        "meta_inclination": 0.0642,
        "meta_ra_of_asc_node": 98.8087,
        "meta_arg_of_pericenter": 137.8855,
        "meta_mean_anomaly": 272.2232,
        "meta_ephemeris_type": 0,
        "meta_classification_type": "U",
        "meta_norad_cat_id": 53765,
        "meta_element_set_no": 999,
        "meta_rev_at_epoch": 503,
        "meta_bstar": 0,
        "meta_mean_motion_dot": 4.2e-07,
        "meta_mean_motion_ddot": 0,
        "tle_line1": "1 53765U 22110A   25354.15878257  .00000042  00000+0  00000+0 0  9998",
        "tle_line2": "2 53765   0.0642  98.8087 0002393 137.8855 272.2232  1.00276689  5031"
      },
      "geometry": {
        "type": "Point",
        "coordinates": [
          -124.00691179938751,
          0.0155741108418415
        ]
      }
    },
    {
      "type": "Feature",
      "properties": {
        "norad_id": 54048,
        "name": "EUTELSAT HOTBIRD 13F",
        "group": "eutelsat",
        "lat": -0.05681294430523968,
        "lon": -113.79964226441405,
        "alt_km": 35790.69106124263,
        "timestamp": "2025-12-20T09:36:01.303473+00:00",
        "meta_object_name": "EUTELSAT HOTBIRD 13F",
        "meta_object_id": "2022-134A",
        "meta_epoch": "2025-12-20T03:40:38.651232",
        "meta_mean_motion": 1.00272187,
        "meta_eccentricity": 0.000238,
        "meta_inclination": 0.0484,
        "meta_ra_of_asc_node": 295.5573,
        "meta_arg_of_pericenter": 68.8834,
        "meta_mean_anomaly": 152.7054,
        "meta_ephemeris_type": 0,
        "meta_classification_type": "U",
        "meta_norad_cat_id": 54048,
        "meta_element_set_no": 999,
        "meta_rev_at_epoch": 1158,
        "meta_bstar": 0,
        "meta_mean_motion_dot": 1.11e-06,
        "meta_mean_motion_ddot": 0,
        "tle_line1": "1 54048U 22134A   25354.15322513  .00000111  00000+0  00000+0 0  9995",
        "tle_line2": "2 54048   0.0484 295.5573 0002380  68.8834 152.7054  1.00272187 11582"
      },
      "geometry": {
        "type": "Point",
        "coordinates": [
          -113.79964226441405,
          -0.05681294430523968
        ]
      }
    },
    {
      "type": "Feature",
      "properties": {
        "norad_id": 54225,
        "name": "EUTELSAT HOTBIRD 13G",
        "group": "eutelsat",
        "lat": -0.018560854103368964,
        "lon": -113.75824803042316,
        "alt_km": 35783.5540978305,
        "timestamp": "2025-12-20T09:36:01.303485+00:00",
        "meta_object_name": "EUTELSAT HOTBIRD 13G",
        "meta_object_id": "2022-146A",
        "meta_epoch": "2025-12-19T18:27:37.056960",
        "meta_mean_motion": 1.0027241,
        "meta_eccentricity": 0.00017892,
        "meta_inclination": 0.0515,
        "meta_ra_of_asc_node": 225.8744,
        "meta_arg_of_pericenter": 308.1908,
        "meta_mean_anomaly": 204.4423,
        "meta_ephemeris_type": 0,
        "meta_classification_type": "U",
        "meta_norad_cat_id": 54225,
        "meta_element_set_no": 999,
        "meta_rev_at_epoch": 566,
        "meta_bstar": 0,
        "meta_mean_motion_dot": 1.12e-06,
        "meta_mean_motion_ddot": 0,
        "tle_line1": "1 54225U 22146A   25353.76917890  .00000112  00000+0  00000+0 0  9990",
        "tle_line2": "2 54225   0.0515 225.8744 0001789 308.1908 204.4423  1.00272410  5660"
      },
      "geometry": {
        "type": "Point",
        "coordinates": [
          -113.75824803042316,
          -0.018560854103368964
        ]
      }
    }
  ]
}